start=new Date('2021-09-24T00:00:00.000Z').valueOf();
sats=[{"OBJECT_TYPE":"PAYLOAD","INCLINATION":"53.0528","REV_AT_EPOCH":"7879","RCS_SIZE":"LARGE","MEAN_MOTION_DOT":"0.00001871","OBJECT_ID":"2020-025N","MEAN_MOTION_DDOT":"0.0000000000000","GP_ID":"185347820","PERIOD":"95.592","COUNTRY_CODE":"US","ELEMENT_SET_NO":"999","DECAY_DATE":null,"REF_FRAME":"TEME","NORAD_CAT_ID":"45543","APOAPSIS":"548.390","BSTAR":"0.00014445000000","EPHEMERIS_TYPE":"0","MEAN_ANOMALY":"297.2692","RA_OF_ASC_NODE":"215.4372","ARG_OF_PERICENTER":"62.8470","OBJECT_NAME":"STARLINK-1372","TLE_LINE2":"2 45543  53.0528 215.4372 0001695  62.8470 297.2692 15.06399264 78791","ECCENTRICITY":"0.00016950","SITE":"AFETR","TLE_LINE1":"1 45543U 20025N   21266.59240018  .00001871  00000-0  14445-3 0  9994","MEAN_ELEMENT_THEORY":"SGP4","TIME_SYSTEM":"UTC","CLASSIFICATION_TYPE":"U","EPOCH":"2021-09-23T14:13:03.375552","FILE":"3125337","CENTER_NAME":"EARTH","LAUNCH_DATE":"2020-04-22","PERIAPSIS":"546.042","SEMIMAJOR_AXIS":"6925.351","MEAN_MOTION":"15.06399264"},{"SEMIMAJOR_AXIS":"6925.314","MEAN_MOTION":"15.06411206","CENTER_NAME":"EARTH","LAUNCH_DATE":"2020-04-22","PERIAPSIS":"545.983","CLASSIFICATION_TYPE":"U","EPOCH":"2021-09-23T06:41:51.943488","FILE":"3124856","TIME_SYSTEM":"UTC","MEAN_ELEMENT_THEORY":"SGP4","TLE_LINE1":"1 45544U 20025P   21266.27907342  .00001940  00000-0  14905-3 0  9998","ECCENTRICITY":"0.00017280","SITE":"AFETR","OBJECT_NAME":"STARLINK-1373","ARG_OF_PERICENTER":"67.3127","TLE_LINE2":"2 45544  53.0539 216.8490 0001728  67.3127 292.8045 15.06411206 79656","MEAN_ANOMALY":"292.8045","RA_OF_ASC_NODE":"216.8490","APOAPSIS":"548.376","BSTAR":"0.00014905000000","EPHEMERIS_TYPE":"0","COUNTRY_CODE":"US","DECAY_DATE":null,"ELEMENT_SET_NO":"999","REF_FRAME":"TEME","NORAD_CAT_ID":"45544","PERIOD":"95.591","OBJECT_ID":"2020-025P","MEAN_MOTION_DDOT":"0.0000000000000","GP_ID":"185314341","RCS_SIZE":"LARGE","MEAN_MOTION_DOT":"0.00001940","REV_AT_EPOCH":"7965","OBJECT_TYPE":"PAYLOAD","INCLINATION":"53.0539"},{"ECCENTRICITY":"0.00017010","SITE":"AFETR","ARG_OF_PERICENTER":"55.4734","OBJECT_NAME":"STARLINK-1374","TLE_LINE2":"2 45545  53.0550 215.5743 0001701  55.4734 304.6415 15.06426062 79671","TIME_SYSTEM":"UTC","MEAN_ELEMENT_THEORY":"SGP4","TLE_LINE1":"1 45545U 20025Q   21266.56288995 -.00004049  00000-0 -25289-3 0  9999","EPOCH":"2021-09-23T13:30:33.691680","CLASSIFICATION_TYPE":"U","FILE":"3125337","SEMIMAJOR_AXIS":"6925.269","MEAN_MOTION":"15.06426062","CENTER_NAME":"EARTH","PERIAPSIS":"545.956","LAUNCH_DATE":"2020-04-22","REV_AT_EPOCH":"7967","OBJECT_TYPE":"PAYLOAD","INCLINATION":"53.0550","OBJECT_ID":"2020-025Q","MEAN_MOTION_DDOT":"0.0000000000000","GP_ID":"185348321","MEAN_MOTION_DOT":"-0.00004049","RCS_SIZE":"LARGE","DECAY_DATE":null,"ELEMENT_SET_NO":"999","COUNTRY_CODE":"US","NORAD_CAT_ID":"45545","REF_FRAME":"TEME","PERIOD":"95.590","MEAN_ANOMALY":"304.6415","RA_OF_ASC_NODE":"215.5743","APOAPSIS":"548.312","EPHEMERIS_TYPE":"0","BSTAR":"-0.00025289000000"},{"PERIOD":"95.593","COUNTRY_CODE":"US","ELEMENT_SET_NO":"999","DECAY_DATE":null,"REF_FRAME":"TEME","NORAD_CAT_ID":"45546","APOAPSIS":"548.286","BSTAR":"0.00012164000000","EPHEMERIS_TYPE":"0","MEAN_ANOMALY":"297.1237","RA_OF_ASC_NODE":"215.5222","OBJECT_TYPE":"PAYLOAD","INCLINATION":"53.0530","REV_AT_EPOCH":"7969","RCS_SIZE":"LARGE","MEAN_MOTION_DOT":"0.00001530","MEAN_MOTION_DDOT":"0.0000000000000","OBJECT_ID":"2020-025R","GP_ID":"185347573","CLASSIFICATION_TYPE":"U","EPOCH":"2021-09-23T13:46:31.554912","FILE":"3125337","CENTER_NAME":"EARTH","LAUNCH_DATE":"2020-04-22","PERIAPSIS":"546.210","SEMIMAJOR_AXIS":"6925.383","MEAN_MOTION":"15.06388821","ARG_OF_PERICENTER":"62.9905","OBJECT_NAME":"STARLINK-1375","TLE_LINE2":"2 45546  53.0530 215.5222 0001499  62.9905 297.1237 15.06388821 79699","ECCENTRICITY":"0.00014990","SITE":"AFETR","TLE_LINE1":"1 45546U 20025R   21266.57397633  .00001530  00000-0  12164-3 0  9999","MEAN_ELEMENT_THEORY":"SGP4","TIME_SYSTEM":"UTC"},{"PERIOD":"95.592","REF_FRAME":"TEME","NORAD_CAT_ID":"45547","COUNTRY_CODE":"US","ELEMENT_SET_NO":"999","DECAY_DATE":null,"BSTAR":"-0.00000925950000","EPHEMERIS_TYPE":"0","APOAPSIS":"548.381","RA_OF_ASC_NODE":"215.5372","MEAN_ANOMALY":"290.3659","INCLINATION":"53.0532","OBJECT_TYPE":"PAYLOAD","REV_AT_EPOCH":"7970","RCS_SIZE":"LARGE","MEAN_MOTION_DOT":"-0.00000419","GP_ID":"185347321","OBJECT_ID":"2020-025S","MEAN_MOTION_DDOT":"0.0000000000000","FILE":"3125337","CLASSIFICATION_TYPE":"U","EPOCH":"2021-09-23T13:41:11.625216","PERIAPSIS":"546.063","LAUNCH_DATE":"2020-04-22","CENTER_NAME":"EARTH","MEAN_MOTION":"15.06397246","SEMIMAJOR_AXIS":"6925.357","TLE_LINE2":"2 45547  53.0532 215.5372 0001674  69.7510 290.3659 15.06397246 79706","ARG_OF_PERICENTER":"69.7510","OBJECT_NAME":"STARLINK-1377","SITE":"AFETR","ECCENTRICITY":"0.00016740","TLE_LINE1":"1 45547U 20025S   21266.57027344 -.00000419  00000-0 -92595-5 0  9994","TIME_SYSTEM":"UTC","MEAN_ELEMENT_THEORY":"SGP4"},{"SITE":"AFETR","ECCENTRICITY":"0.00015100","TLE_LINE2":"2 45548  53.0541 216.9112 0001510  61.3572 298.7569 15.06398375 79648","OBJECT_NAME":"STARLINK-1378","ARG_OF_PERICENTER":"61.3572","TIME_SYSTEM":"UTC","MEAN_ELEMENT_THEORY":"SGP4","TLE_LINE1":"1 45548U 20025T   21266.26433896 -.00000014  00000-0  17931-4 0  9994","FILE":"3124856","CLASSIFICATION_TYPE":"U","EPOCH":"2021-09-23T06:20:38.886144","MEAN_MOTION":"15.06398375","SEMIMAJOR_AXIS":"6925.354","PERIAPSIS":"546.173","LAUNCH_DATE":"2020-04-22","CENTER_NAME":"EARTH","REV_AT_EPOCH":"7964","INCLINATION":"53.0541","OBJECT_TYPE":"PAYLOAD","GP_ID":"185314841","OBJECT_ID":"2020-025T","MEAN_MOTION_DDOT":"0.0000000000000","RCS_SIZE":"LARGE","MEAN_MOTION_DOT":"-0.00000014","REF_FRAME":"TEME","NORAD_CAT_ID":"45548","COUNTRY_CODE":"US","DECAY_DATE":null,"ELEMENT_SET_NO":"999","PERIOD":"95.592","RA_OF_ASC_NODE":"216.9112","MEAN_ANOMALY":"298.7569","BSTAR":"0.00001793100000","EPHEMERIS_TYPE":"0","APOAPSIS":"548.264"},{"FILE":"3125337","CLASSIFICATION_TYPE":"U","EPOCH":"2021-09-23T14:23:39.747840","PERIAPSIS":"546.040","LAUNCH_DATE":"2020-04-22","CENTER_NAME":"EARTH","MEAN_MOTION":"15.06401372","SEMIMAJOR_AXIS":"6925.344","TLE_LINE2":"2 45549  53.0534 215.4063 0001689  72.7021 287.4153 15.06401372 79693","OBJECT_NAME":"STARLINK-1379","ARG_OF_PERICENTER":"72.7021","SITE":"AFETR","ECCENTRICITY":"0.00016890","TLE_LINE1":"1 45549U 20025U   21266.59976560  .00001815  00000-0  14071-3 0  9991","MEAN_ELEMENT_THEORY":"SGP4","TIME_SYSTEM":"UTC","PERIOD":"95.592","REF_FRAME":"TEME","NORAD_CAT_ID":"45549","COUNTRY_CODE":"US","ELEMENT_SET_NO":"999","DECAY_DATE":null,"BSTAR":"0.00014071000000","EPHEMERIS_TYPE":"0","APOAPSIS":"548.379","RA_OF_ASC_NODE":"215.4063","MEAN_ANOMALY":"287.4153","INCLINATION":"53.0534","OBJECT_TYPE":"PAYLOAD","REV_AT_EPOCH":"7969","RCS_SIZE":"LARGE","MEAN_MOTION_DOT":"0.00001815","GP_ID":"185348821","MEAN_MOTION_DDOT":"0.0000000000000","OBJECT_ID":"2020-025U"},{"GP_ID":"185313342","OBJECT_ID":"2020-025V","MEAN_MOTION_DDOT":"0.0000000000000","RCS_SIZE":"LARGE","MEAN_MOTION_DOT":"0.00001383","REV_AT_EPOCH":"7964","INCLINATION":"53.0541","OBJECT_TYPE":"PAYLOAD","RA_OF_ASC_NODE":"216.8344","MEAN_ANOMALY":"291.0882","BSTAR":"0.00011168000000","EPHEMERIS_TYPE":"0","APOAPSIS":"548.336","REF_FRAME":"TEME","NORAD_CAT_ID":"45550","COUNTRY_CODE":"US","DECAY_DATE":null,"ELEMENT_SET_NO":"999","PERIOD":"95.592","TIME_SYSTEM":"UTC","MEAN_ELEMENT_THEORY":"SGP4","TLE_LINE1":"1 45550U 20025V   21266.28181751  .00001383  00000-0  11168-3 0  9993","SITE":"AFETR","ECCENTRICITY":"0.00016480","TLE_LINE2":"2 45550  53.0541 216.8344 0001648  69.0283 291.0882 15.06406040 79646","ARG_OF_PERICENTER":"69.0283","OBJECT_NAME":"STARLINK-1390","MEAN_MOTION":"15.06406040","SEMIMAJOR_AXIS":"6925.330","LAUNCH_DATE":"2020-04-22","PERIAPSIS":"546.054","CENTER_NAME":"EARTH","FILE":"3124856","CLASSIFICATION_TYPE":"U","EPOCH":"2021-09-23T06:45:49.032864"},{"REV_AT_EPOCH":"7992","OBJECT_TYPE":"PAYLOAD","INCLINATION":"53.0531","OBJECT_ID":"2020-025W","MEAN_MOTION_DDOT":"0.0000000000000","GP_ID":"185314593","MEAN_MOTION_DOT":"0.00000602","RCS_SIZE":"LARGE","DECAY_DATE":null,"ELEMENT_SET_NO":"999","COUNTRY_CODE":"US","NORAD_CAT_ID":"45551","REF_FRAME":"TEME","PERIOD":"95.592","MEAN_ANOMALY":"297.6862","RA_OF_ASC_NODE":"197.1228","APOAPSIS":"548.377","EPHEMERIS_TYPE":"0","BSTAR":"0.00005931800000","ECCENTRICITY":"0.00016770","SITE":"AFETR","ARG_OF_PERICENTER":"62.4297","OBJECT_NAME":"STARLINK-1294","TLE_LINE2":"2 45551  53.0531 197.1228 0001677  62.4297 297.6862 15.06399341 79928","MEAN_ELEMENT_THEORY":"SGP4","TIME_SYSTEM":"UTC","TLE_LINE1":"1 45551U 20025W   21266.21825755  .00000602  00000-0  59318-4 0  9999","EPOCH":"2021-09-23T05:14:17.452320","CLASSIFICATION_TYPE":"U","FILE":"3124856","SEMIMAJOR_AXIS":"6925.351","MEAN_MOTION":"15.06399341","CENTER_NAME":"EARTH","PERIAPSIS":"546.054","LAUNCH_DATE":"2020-04-22"},{"REV_AT_EPOCH":"7937","OBJECT_TYPE":"PAYLOAD","INCLINATION":"53.0546","OBJECT_ID":"2020-025X","MEAN_MOTION_DDOT":"0.0000000000000","GP_ID":"185318737","RCS_SIZE":"LARGE","MEAN_MOTION_DOT":"0.00070721","COUNTRY_CODE":"US","DECAY_DATE":null,"ELEMENT_SET_NO":"999","REF_FRAME":"TEME","NORAD_CAT_ID":"45552","PERIOD":"94.962","MEAN_ANOMALY":"240.3110","RA_OF_ASC_NODE":"194.9102","APOAPSIS":"517.760","BSTAR":"0.00357740000000","EPHEMERIS_TYPE":"0","ECCENTRICITY":"0.00015030","SITE":"AFETR","OBJECT_NAME":"STARLINK-1322","ARG_OF_PERICENTER":"119.8033","TLE_LINE2":"2 45552  53.0546 194.9102 0001503 119.8033 240.3110 15.16403300 79376","MEAN_ELEMENT_THEORY":"SGP4","TIME_SYSTEM":"UTC","TLE_LINE1":"1 45552U 20025X   21266.53861075  .00070721  00000-0  35774-2 0  9997","CLASSIFICATION_TYPE":"U","EPOCH":"2021-09-23T12:55:35.968800","FILE":"3124936","SEMIMAJOR_AXIS":"6894.859","MEAN_MOTION":"15.16403300","CENTER_NAME":"EARTH","LAUNCH_DATE":"2020-04-22","PERIAPSIS":"515.687"}];
